GSAT0101 (PRN E11)      
1 37846U 11060A   21020.57514639 -.00000066  00000-0  00000+0 0  9993
2 37846  56.7591  35.3245 0003758 315.9595  44.0499  1.70475441 57606
GSAT0102 (PRN E12)      
1 37847U 11060B   21022.55637285 -.00000057  00000-0  00000-0 0  9998
2 37847  56.7603  35.2696 0005615 303.2581 238.8529  1.70475593 57514
GSAT0103 (PRN E19)      
1 38857U 12055A   21022.37648103  .00000028  00000-0  00000-0 0  9993
2 38857  55.0174 155.7561 0002068 241.6385 118.3009  1.70473714 51541
GSAT0104 (PRN E20)      
1 38858U 12055B   21021.72432358  .00000029  00000-0  00000-0 0  9996
2 38858  55.0181 155.7737 0000830 225.2155 134.7390  1.70473641 51536
GSAT0201 (PRN E18)      
1 40128U 14050A   21022.23612944 -.00000109  00000-0  00000-0 0  9994
2 40128  50.5252 352.6495 1652081 106.5091 272.2554  1.85519401 41731
GSAT0202 (PRN E14)      
1 40129U 14050B   21020.34305024 -.00000113  00000-0  00000+0 0  9997
2 40129  50.5591 351.7691 1649665 107.2588 271.4306  1.85519837 43831
GSAT0203 (PRN E26)      
1 40544U 15017A   21022.11607955 -.00000059  00000-0  00000-0 0  9997
2 40544  56.5540  35.3858 0005507 263.2249  96.7544  1.70475081 35580
GSAT0204 (PRN E22)      
1 40545U 15017B   21021.31042303 -.00000063  00000-0  00000-0 0  9994
2 40545  56.5598  35.4247 0003337 245.2191 114.7867  1.70475303 36231
GSAT0205 (PRN E24)      
1 40889U 15045A   21020.96586555 -.00000007  00000-0  00000-0 0  9996
2 40889  55.9837 276.1094 0005809  12.5340 347.5455  1.70474789 33370
GSAT0206 (PRN E30)      
1 40890U 15045B   21021.18537593 -.00000006  00000-0  00000-0 0  9990
2 40890  55.9858 276.0995 0004079   4.3060 355.7628  1.70474904 33406
GSAT0209 (PRN E09)      
1 41174U 15079A   21021.94551326  .00000028  00000-0  00000-0 0  9990
2 41174  55.0326 155.4676 0002799 324.7503  35.1922  1.70473720 31327
GSAT0208 (PRN E08)      
1 41175U 15079B   21020.99206138  .00000029  00000-0  00000+0 0  9993
2 41175  55.0305 155.4928 0001998 331.7276  28.2234  1.70473702 31723
GSAT0211 (PRN E02)      
1 41549U 16030A   21021.11350665 -.00000006  00000-0  00000-0 0  9993
2 41549  56.1259 275.9808 0004570 340.0358  20.0117  1.70474555 29034
GSAT0210 (PRN E01)      
1 41550U 16030B   21021.99295999  .00000000  00000-0  00000-0 0  9992
2 41550  56.1251 275.9584 0003192 318.4300  41.6125  1.70474628 29044
GSAT0207 (PRN E07)      
1 41859U 16069A   21021.06508586  .00000029  00000-0  00000-0 0  9994
2 41859  54.6902 155.8001 0002458 302.6998  57.2380  1.70473577 25925
GSAT0212 (PRN E03)      
1 41860U 16069B   21022.09169150  .00000028  00000-0  00000-0 0  9999
2 41860  54.6889 155.7701 0001961 350.9622   8.9948  1.70473709 26038
GSAT0213 (PRN E04)      
1 41861U 16069C   21021.87080069  .00000028  00000-0  00000-0 0  9996
2 41861  54.6909 155.7806 0001939 259.0645 100.8746  1.70473926 26036
GSAT0214 (PRN E05)      
1 41862U 16069D   21020.25812656  .00000029  00000-0  00000-0 0  9994
2 41862  54.6891 155.8205 0001077 263.6389  96.3100  1.70473719 25997
GSAT0215 (PRN E21)      
1 43055U 17079A   21020.74865980 -.00000008  00000-0  00000-0 0  9992
2 43055  56.1015 275.8311 0002538 322.1654  37.8822  1.70473808 19340
GSAT0216 (PRN E25)      
1 43056U 17079B   21019.86809192 -.00000012  00000-0  00000-0 0  9992
2 43056  56.1023 275.8549 0004044 303.1674  56.8596  1.70473922 19344
GSAT0217 (PRN E27)      
1 43057U 17079C   21021.84795286 -.00000001  00000-0  00000-0 0  9990
2 43057  56.0994 275.8010 0004095 317.7964  42.2386  1.70473860 19362
GSAT0218 (PRN E31)      
1 43058U 17079D   21022.06810270  .00000001  00000-0  00000-0 0  9996
2 43058  56.1000 275.7923 0002288   6.9250 353.1451  1.70473388 19396
GSAT0221 (PRN E15)      
1 43564U 18060A   21021.96648518 -.00000059  00000-0  00000-0 0  9995
2 43564  56.9402  35.0739 0006245 275.5167  84.4535  1.70476120 15549
GSAT0222 (PRN E33)      
1 43565U 18060B   21022.18632833 -.00000058  00000-0  00000-0 0  9993
2 43565  56.9423  35.0678 0005950 281.5779  78.3971  1.70476140 15596
GSAT0219 (PRN E36)      
1 43566U 18060C   21021.23359673 -.00000062  00000-0  00000-0 0  9992
2 43566  56.9417  35.0955 0005636 277.2373  82.7387  1.70476001 15553
GSAT0220 (PRN E13)      
1 43567U 18060D   21022.04006575 -.00000059  00000-0  00000-0 0  9999
2 43567  56.9417  35.0738 0005737 278.4569  81.5195  1.70476204 15554
